BEESAT-2
1 39136U 13015G   15225.52848172  .00002519  00000-0  15974-3 0  9990
2 39136 064.8711 236.8501 0028752 243.4795 116.3379 15.11035635127329
ZACUBE-1
1 39417U 13066B   15225.13265837  .00000577  00000-0  81380-4 0  9993
2 39417 097.7259 285.5023 0059123 311.9992 047.6194 14.79838714 93054
TRITON-1
1 39427U 13066M   15225.72023529  .00000478  00000-0  86158-4 0  9997
2 39427 097.7104 273.0729 0115095 344.1825 015.5796 14.66751245 92299
DELFIN3XT
1 39428U 13066N   15225.70488205  .00000788  00000-0  13827-3 0  9998
2 39428 097.7111 271.2652 0123561 349.4679 010.3940 14.65559524 92160
GOMX-1
1 39430U 13066Q   15225.57983645  .00000783  00000-0  15345-3 0  9996
2 39430 097.7048 264.5391 0153545 009.4244 350.9775 14.58164692 91745
MO-76
1 39436U 13066W   15225.26667847  .00012393  00000-0  79091-3 0  9999
2 39436 097.7433 301.8331 0019703 267.0914 092.8059 15.08671118 94091
LO-74
1 39440U 13066AA  15225.33711068  .00000532  00000-0  83211-4 0  9999
2 39440 097.7199 280.5496 0080932 324.0043 035.5731 14.74648736 92753
PUCPSAT-1
1 39442U 13066AC  15225.75549620  .00000931  00000-0  10459-3 0  9996
2 39442 097.7357 294.4522 0031544 293.9440 065.8475 14.88783625 92433
SPROUT
1 39770U 14029E   15225.09442884  .00001494  00000-0  18584-3 0  9993
2 39770 097.8737 321.1446 0010031 023.7781 336.3901 14.83985185 66079
POPSAT-HIP1
1 40028U 14033U   15225.71692214  .00001349  00000-0  15603-3 0  9997
2 40028 097.9495 126.1402 0014488 359.5287 000.5912 14.87164956 62331
EO-80
1 40032U 14033Y   15225.65762840  .00000825  00000-0  98698-4 0  9992
2 40032 097.9456 125.7016 0012200 356.9766 003.1373 14.86844141 62321
VELOX-1
1 40057U 14034E   15225.69203977  .00001176  00000-0  17840-3 0  9994
2 40057 098.2145 304.7353 0012487 058.3434 301.8985 14.75984809 60365
DAURIA DX 1
1 40071U 14037C   15225.78045411  .00000533  00000-0  77140-4 0  9996
2 40071 098.3541 299.5580 0009681 059.8359 300.3807 14.80467748 59313
UKUBE-1
1 40074U 14037F   15225.74521239  .00001167  00000-0  15317-3 0  9993
2 40074 098.3566 300.4883 0005910 066.8029 293.3796 14.82346101 59368
HODOYOSHI-1
1 40299U 14070B   15225.76969267  .00002246  00000-0  10838-3 0  9990
2 40299 097.4549 306.5717 0011657 296.0202 160.2214 15.19666341 42569
CHUBUSAT-1
1 40300U 14070C   15225.72987323  .00002381  00000-0  11992-3 0  9994
2 40300 097.4515 305.6533 0020784 296.0477 220.7398 15.17989556 42509
QSAT-EOS
1 40301U 14070D   15225.72293334  .00004450  00000-0  22180-3 0  9997
2 40301 097.4474 304.9345 0030244 295.8770 226.4766 15.17673102 42466
TSUBAME
1 40302U 14070E   15225.73500373  .00002491  00000-0  14075-3 0  9990
2 40302 097.4453 303.4507 0041366 300.3382 158.2070 15.13326442 42374
FIREBIRD FU3
1 40377U 15003B   15225.70896952  .00006113  00000-0  30033-3 0  9994
2 40377 099.1144 269.8387 0156979 065.4325 296.3167 15.08310812 29224
FIREBIRD FU4
1 40378U 15003C   15225.70632074  .00005947  00000-0  29205-3 0  9991
2 40378 099.1144 269.8433 0157218 065.3902 296.3610 15.08315496 29220
GRIFEX
1 40379U 15003D   15225.77235415  .00004858  00000-0  24445-3 0  9998
2 40379 099.1155 269.7699 0158636 066.6653 295.1172 15.07479596 29229
LAMBDA-SAT
1 40458U 98067GB  15136.30676273  .20783109  12527-4  14817-2 0  9995
2 40458 051.6075 233.7697 0010355 318.5347 043.1720 16.39926603 21161
NO-84
1 40654U          15225.52511821  .00010030  00000-0  25590-3 0 00921
2 40654 054.9938 331.5791 0244541 031.1609 330.3503 15.15095176012862
NO-83
1 40655U          15225.56455221  .00013794  00000-0  34305-3 0 00987
2 40655 054.9903 331.1376 0241391 031.4458 330.0678 15.15942974012873
DEORBITSAIL
1 40719U 15032E   15224.84019895  .00000670  00000-0  10792-3 0  9995
2 40719 098.0488 113.7642 0017556 144.9031 215.3341 14.74614693  4884
